NORAD_CAT_ID,OBJECT_NAME,OBJECT_TYPE,EPOCH,MEAN_MOTION,ECCENTRICITY,INCLINATION,RA_OF_ASC_NODE,ARG_OF_PERICENTER,MEAN_ANOMALY,BSTAR,MEAN_MOTION_DOT,MEAN_MOTION_DDOT,TLE_LINE0,TLE_LINE1,TLE_LINE2,SEMIMAJOR_AXIS,PERIOD,APOGEE,PERIGEE,DECAYED
54188.0,STARLINK-5238,PAYLOAD,2024-05-01 08:55:23,15.08846597,0.000157,53.2151,154.8759,85.4335,274.6837,0.00010544,1.391e-05,0.0,0 STARLINK-5238,1 54188U 22141AH  24122.37179560  .00001391  00000-0  10544-3 0  9996,2 54188  53.2151 154.8759 0001570  85.4335 274.6837 15.08846597 83972,6917.86,95.437,540.811,538.639,0.0
54188.0,STARLINK-5238,PAYLOAD,2024-05-02 08:46:07,15.08886,0.0001423,53.2158,150.416,84.2241,275.8913,0.00041478,6.328e-05,0.0,0 STARLINK-5238,1 54188U 22141AH  24123.36535999  .00006328  00000-0  41478-3 0  9993,2 54188  53.2158 150.4160 0001423  84.2241 275.8913 15.08886000 84126,6917.74,95.435,540.589,538.62,0.0
54188.0,STARLINK-5238,PAYLOAD,2024-05-02 18:18:25,15.08880713,0.0001341,53.214,148.6305,77.0206,283.0936,0.0003437,5.192e-05,0.0,0 STARLINK-5238,1 54188U 22141AH  24123.76279547  .00005192  00000-0  34370-3 0  9992,2 54188  53.2140 148.6305 0001341  77.0206 283.0936 15.08880713 84184,6917.756,95.435,540.549,538.693,0.0
54188.0,STARLINK-5238,PAYLOAD,2024-05-03 05:26:10,15.08837206,0.0001467,53.2156,146.5499,90.0454,270.0706,2.7066e-05,1.43e-06,0.0,0 STARLINK-5238,1 54188U 22141AH  24124.22650995  .00000143  00000-0  27066-4 0  9990,2 54188  53.2156 146.5499 0001467  90.0454 270.0706 15.08837206 84259,6917.889,95.438,540.769,538.739,0.0
54188.0,STARLINK-5238,PAYLOAD,2024-05-03 11:47:42,15.08840483,0.0001508,53.2153,145.3615,89.113,271.0035,-7.98e-05,-1.558e-05,0.0,0 STARLINK-5238,1 54188U 22141AH  24124.49146213 -.00001558  00000-0 -79800-4 0  9998,2 54188  53.2153 145.3615 0001508  89.1130 271.0035 15.08840483 84290,6917.879,95.438,540.787,538.701,0.0
54188.0,STARLINK-5238,PAYLOAD,2024-05-03 18:09:15,15.08832545,0.0001465,53.2152,144.1708,81.6526,278.4632,-0.00019278,-3.354e-05,0.0,0 STARLINK-5238,1 54188U 22141AH  24124.75642633 -.00003354  00000-0 -19278-3 0  9992,2 54188  53.2152 144.1708 0001465  81.6526 278.4632 15.08832545 84336,6917.903,95.438,540.782,538.755,0.0
54188.0,STARLINK-5238,PAYLOAD,2024-05-04 05:16:59,15.08820515,0.0001639,53.2175,142.0923,95.4319,264.6861,-0.00017973,-3.146e-05,0.0,0 STARLINK-5238,1 54188U 22141AH  24125.22012965 -.00003146  00000-0 -17973-3 0  9993,2 54188  53.2175 142.0923 0001639  95.4319 264.6861 15.08820515 84406,6917.94,95.439,540.939,538.671,0.0
54188.0,STARLINK-5238,PAYLOAD,2024-05-04 18:00:03,15.08840176,0.0001495,53.2169,139.7115,81.2409,278.8752,-0.00036382,-6.074e-05,0.0,0 STARLINK-5238,1 54188U 22141AH  24125.75004577 -.00006074  00000-0 -36382-3 0  9999,2 54188  53.2169 139.7115 0001495  81.2409 278.8752 15.08840176 84487,6917.88,95.438,540.779,538.711,0.0
54188.0,STARLINK-5238,PAYLOAD,2024-05-05 05:07:46,15.08818899,0.000163,53.2168,137.6299,84.9406,275.1772,1.1577e-05,-1.04e-06,0.0,0 STARLINK-5238,1 54188U 22141AH  24126.21373361 -.00000104  00000-0  11577-4 0  9998,2 54188  53.2168 137.6299 0001630  84.9406 275.1772 15.08818899 84551,6917.945,95.439,540.938,538.682,0.0
54188.0,STARLINK-5238,PAYLOAD,2024-05-05 09:53:56,15.08818963,0.0001628,53.2168,136.7378,84.2859,275.8319,1.1454e-05,-1.06e-06,0.0,0 STARLINK-5238,1 54188U 22141AH  24126.41245642 -.00000106  00000-0  11454-4 0  9996,2 54188  53.2168 136.7378 0001628  84.2859 275.8319 15.08818963 84355,6917.945,95.439,540.936,538.683,0.0
54188.0,STARLINK-5238,PAYLOAD,2024-05-06 04:58:33,15.08829417,0.0001448,53.2158,133.1689,82.6633,277.4524,0.00027591,4.105e-05,0.0,0 STARLINK-5238,1 54188U 22141AH  24127.20733043  .00004105  00000-0  27591-3 0  9991,2 54188  53.2158 133.1689 0001448  82.6633 277.4524 15.08829417 84703,6917.913,95.438,540.779,538.776,0.0
54188.0,STARLINK-5238,PAYLOAD,2024-05-06 08:09:19,15.08834899,0.0001581,53.2166,132.5741,82.1637,277.9535,0.00028488,4.248e-05,0.0,0 STARLINK-5238,1 54188U 22141AH  24127.33980939  .00004248  00000-0  28488-3 0  9997,2 54188  53.2166 132.5741 0001581  82.1637 277.9535 15.08834899 84494,6917.896,95.438,540.855,538.667,0.0
54188.0,STARLINK-5238,PAYLOAD,2024-05-06 17:41:38,15.08841561,0.0001597,53.2168,130.7901,82.409,277.7083,0.000307,4.601e-05,0.0,0 STARLINK-5238,1 54188U 22141AH  24127.73724781  .00004601  00000-0  30700-3 0  9995,2 54188  53.2168 130.7901 0001597  82.4090 277.7083 15.08841561 84554,6917.876,95.437,540.845,538.636,0.0
54188.0,STARLINK-5238,PAYLOAD,2024-05-07 04:49:19,15.08852153,0.00016,53.2167,128.7085,82.4087,277.7087,0.00031417,4.717e-05,0.0,0 STARLINK-5238,1 54188U 22141AH  24128.20092134  .00004717  00000-0  31417-3 0  9992,2 54188  53.2167 128.7085 0001600  82.4087 277.7087 15.08852153 84850,6917.843,95.437,540.815,538.601,0.0
54188.0,STARLINK-5238,PAYLOAD,2024-05-07 09:35:28,15.08860133,0.0001626,53.2165,127.8167,82.2187,277.899,0.00034109,5.148e-05,0.0,0 STARLINK-5238,1 54188U 22141AH  24128.39963758  .00005148  00000-0  34109-3 0  9991,2 54188  53.2165 127.8167 0001626  82.2187 277.8990 15.08860133 84655,6917.819,95.436,540.809,538.559,0.0
54188.0,STARLINK-5238,PAYLOAD,2024-05-08 04:40:06,15.08850027,0.0001629,53.2144,124.2469,83.043,277.0747,5.1357e-05,5.3e-06,0.0,0 STARLINK-5238,1 54188U 22141AH  24129.19452257  .00000530  00000-0  51357-4 0  9992,2 54188  53.2144 124.2469 0001629  83.0430 277.0747 15.08850027 85004,6917.85,95.437,540.842,538.588,0.0
54188.0,STARLINK-5238,PAYLOAD,2024-05-08 06:15:29,15.08851562,0.0001641,53.2148,123.9494,78.8524,281.2652,2.8392e-05,1.64e-06,0.0,0 STARLINK-5238,1 54188U 22141AH  24129.26076150  .00000164  00000-0  28392-4 0  9990,2 54188  53.2148 123.9494 0001641  78.8524 281.2652 15.08851562 84783,6917.845,95.437,540.845,538.575,0.0
54188.0,STARLINK-5238,PAYLOAD,2024-05-09 04:30:53,15.08847588,0.0001624,53.2165,119.7864,90.202,269.9158,-5.7439e-05,-1.202e-05,0.0,0 STARLINK-5238,1 54188U 22141AH  24130.18812149 -.00001202  00000-0 -57439-4 0  9999,2 54188  53.2165 119.7864 0001624  90.2020 269.9158 15.08847588 85155,6917.857,95.437,540.846,538.599,0.0
54188.0,STARLINK-5238,PAYLOAD,2024-05-09 06:06:16,15.08849014,0.0001568,53.2165,119.4899,87.5748,272.5424,-3.7875e-05,-8.91e-06,0.0,0 STARLINK-5238,1 54188U 22141AH  24130.25435950 -.00000891  00000-0 -37875-4 0  9993,2 54188  53.2165 119.4899 0001568  87.5748 272.5424 15.08849014 84930,6917.853,95.437,540.803,538.633,0.0
54188.0,STARLINK-5238,PAYLOAD,2024-05-10 05:57:03,15.08844768,0.0001581,53.2166,115.0298,91.6973,268.42,9.5347e-05,1.23e-05,0.0,0 STARLINK-5238,1 54188U 22141AH  24131.24795795  .00001230  00000-0  95347-4 0  9993,2 54188  53.2166 115.0298 0001581  91.6973 268.4200 15.08844768 85081,6917.866,95.437,540.825,538.637,0.0
54188.0,STARLINK-5238,PAYLOAD,2024-05-10 15:29:22,15.08840229,0.0001551,53.2161,113.2458,91.595,268.522,7.0416e-05,8.33e-06,0.0,0 STARLINK-5238,1 54188U 22141AH  24131.64540169  .00000833  00000-0  70416-4 0  9998,2 54188  53.2161 113.2458 0001551  91.5950 268.5220 15.08840229 85378,6917.88,95.438,540.818,538.672,0.0
54188.0,STARLINK-5238,PAYLOAD,2024-05-10 21:50:55,15.08839341,0.0001633,53.2172,112.0574,93.4864,266.6315,7.2043e-05,8.59e-06,0.0,0 STARLINK-5238,1 54188U 22141AH  24131.91036284  .00000859  00000-0  72043-4 0  9992,2 54188  53.2172 112.0574 0001633  93.4864 266.6315 15.08839341 85188,6917.882,95.438,540.877,538.618,0.0
54188.0,STARLINK-5238,PAYLOAD,2024-05-11 08:58:35,15.08866299,0.0001611,53.2167,109.9681,98.3871,261.7304,0.00028032,4.179e-05,0.0,0 STARLINK-5238,1 54188U 22141AH  24132.37402521  .00004179  00000-0  28032-3 0  9991,2 54188  53.2167 109.9681 0001611  98.3871 261.7304 15.08866299 85483,6917.8,95.436,540.779,538.551,0.0
54188.0,STARLINK-5238,PAYLOAD,2024-05-11 15:20:07,15.08872178,0.0001358,53.2166,108.7829,87.3766,272.7381,0.00048372,7.426e-05,0.0,0 STARLINK-5238,1 54188U 22141AH  24132.63898035  .00007426  00000-0  48372-3 0  9996,2 54188  53.2166 108.7829 0001358  87.3766 272.7381 15.08872178 85291,6917.782,95.436,540.586,538.708,0.0
54188.0,STARLINK-5238,PAYLOAD,2024-05-12 04:03:16,15.08791599,0.0001816,53.2167,106.4072,59.8743,300.2429,-0.00077819,-0.00012635,0.0,0 STARLINK-5238,1 54188U 22141AH  24133.16893697 -.00012635  00000-0 -77819-3 0  9992,2 54188  53.2167 106.4072 0001816  59.8743 300.2429 15.08791599 85607,6918.028,95.441,541.15,538.637,0.0
54188.0,STARLINK-5238,PAYLOAD,2024-05-12 07:14:02,15.08789554,0.0001529,53.2165,105.8125,76.309,283.8073,-0.00078591,-0.00012757,0.0,0 STARLINK-5238,1 54188U 22141AH  24133.30141942 -.00012757  00000-0 -78591-3 0  9990,2 54188  53.2165 105.8125 0001529  76.3090 283.8073 15.08789554 85392,6918.035,95.441,540.957,538.842,0.0
54188.0,STARLINK-5238,PAYLOAD,2024-05-12 15:10:59,15.08784698,0.0001591,53.217,104.3259,74.5739,285.5429,-0.00071568,-0.00011643,0.0,0 STARLINK-5238,1 54188U 22141AH  24133.63263099 -.00011643  00000-0 -71568-3 0  9994,2 54188  53.2170 104.3259 0001591  74.5739 285.5429 15.08784698 85443,6918.049,95.441,541.015,538.814,0.0
54188.0,STARLINK-5238,PAYLOAD,2024-05-13 03:54:04,15.08805156,0.0001919,53.2181,101.9393,79.444,280.6769,-0.00038055,-6.334e-05,0.0,0 STARLINK-5238,1 54188U 22141AH  24134.16255495 -.00006334  00000-0 -38055-3 0  9999,2 54188  53.2181 101.9393 0001919  79.4440 280.6769 15.08805156 85754,6917.987,95.44,541.179,538.524,0.0
54188.0,STARLINK-5238,PAYLOAD,2024-05-13 07:04:49,15.08830672,0.0001734,53.2182,101.3446,100.1158,260.003,2.2182e-05,6.5e-07,0.0,0 STARLINK-5238,1 54188U 22141AH  24134.29502297  .00000065  00000-0  22182-4 0  9996,2 54188  53.2182 101.3446 0001734 100.1158 260.0030 15.08830672 85777,6917.909,95.438,540.973,538.574,0.0
54188.0,STARLINK-5238,PAYLOAD,2024-05-13 15:01:45,15.08842565,0.0001466,53.2168,99.8641,86.9178,273.1982,0.00012348,1.678e-05,0.0,0 STARLINK-5238,1 54188U 22141AH  24134.62621905  .00001678  00000-0  12348-3 0  9994,2 54188  53.2168  99.8641 0001466  86.9178 273.1982 15.08842565 85825,6917.873,95.437,540.752,538.723,0.0
